<?xml version="1.0" encoding="UTF-8"?>
<!--
silverstone right track limit — 168 vertices, closed (first vertex repeated at the end).

Derived by offsetting a circuit centerline and refining it by hand in
scripts/trace_track_limits.html (twinkly-f1, ADR-0003).

Centerline geometry © Tomislav Bacinger, MIT — bacinger/f1-circuits, circuits/gb-1948.geojson
-->
<kml xmlns="http://www.opengis.net/kml/2.2">
  <Document>
    <name>silverstone_right</name>
    <Placemark><name>silverstone_right</name>
      <LineString><tessellate>1</tessellate><altitudeMode>clampToGround</altitudeMode>
        <coordinates>-1.015323855668532,52.07875767878522,0 -1.012607044961217,52.07889456103416,0 -1.0123132910624604,52.07889111297743,0 -1.012050055529182,52.078856744804185,0 -1.0118069708417465,52.07878490162334,0 -1.0115870779276255,52.07869531562129,0 -1.0114397059303368,52.07859799340356,0 -1.0113152314198186,52.07850127345882,0 -1.0111528589525622,52.07827433574039,0 -1.0109963399424096,52.07798600556879,0 -1.0107726209117973,52.077482088816396,0 -1.010595339708123,52.076988137792725,0 -1.0104683920382522,52.07645461911192,0 -1.0104232272358538,52.07610359595848,0 -1.0103555234146757,52.07527469828303,0 -1.0103009666828715,52.07456291848145,0 -1.0102906445702216,52.07443686706256,0 -1.0102302421272298,52.074265209391754,0 -1.010072293254227,52.074001840582454,0 -1.009716630717655,52.073632377113924,0 -1.0096528469194526,52.0735370018669,0 -1.0096205796758795,52.07344738437132,0 -1.0096258626186128,52.07331002786026,0 -1.0096618495052505,52.07322431178723,0 -1.009716201435264,52.07314888737668,0 -1.0100180672828845,52.07264054932729,0 -1.010145967928044,52.07238336248393,0 -1.0101816247587247,52.0721837696594,0 -1.0101777320739558,52.07206360341509,0 -1.0101007154137214,52.071817176301366,0 -1.0099243692911108,52.07163424905129,0 -1.009593047884786,52.07137903456413,0 -1.0094556130354748,52.071246495114956,0 -1.0093774802945983,52.07108487999967,0 -1.0093684973585366,52.07096511772573,0 -1.0094322784037044,52.07078656939854,0 -1.0095471366560143,52.07066127062536,0 -1.0097096100977423,52.07055772928082,0 -1.0098783042328356,52.0704782422504,0 -1.010080647245718,52.070406805897804,0 -1.0105277885848571,52.07023770456635,0 -1.0108339954787398,52.070124607960025,0 -1.011045012325042,52.07002188377095,0 -1.0112249400659492,52.06990815829423,0 -1.0116434167168868,52.0694541729587,0 -1.012129839772798,52.06889206135789,0 -1.013758783230433,52.06699453323514,0 -1.01457298975492,52.06605175210896,0 -1.0151606102870985,52.06539853932349,0 -1.0158312850157138,52.064734749831906,0 -1.0165447868943724,52.06409114031963,0 -1.016804863192479,52.063867997132704,0 -1.0169273747921443,52.06378922953839,0 -1.01704639840426,52.06373435282711,0 -1.0171750643962076,52.06368113528072,0 -1.0173150043252257,52.06364756656258,0 -1.0175793266456512,52.063602619986675,0 -1.0178394979677012,52.06359652163178,0 -1.0181279912437025,52.063630036706286,0 -1.0183618843369653,52.06370261046549,0 -1.0185689374797444,52.06379890058732,0 -1.0186966233168842,52.06387738933084,0 -1.0187802885844943,52.063962621303446,0 -1.0188406103649732,52.06402650442513,0 -1.0191339835717,52.06442212074178,0 -1.0194705414037089,52.06477505536038,0 -1.0198094197736074,52.06507563929599,0 -1.0200540632454747,52.06526538094864,0 -1.0203287577766902,52.065451203719746,0 -1.020797032719863,52.06575536877611,0 -1.0213504446464745,52.06614787820547,0 -1.021885869417759,52.06654484954947,0 -1.0220124565538091,52.066611070847166,0 -1.022128098810714,52.06663247655967,0 -1.0222541790604418,52.06663759263146,0 -1.0224238417419476,52.066591052602405,0 -1.0225783043610814,52.06650384175635,0 -1.022822996054999,52.066353785236736,0 -1.0229780957151324,52.066307000061045,0 -1.0230799042625731,52.06631170755511,0 -1.0231859704407282,52.06632995836891,0 -1.023356243263033,52.0664187694896,0 -1.023545450521567,52.06653811560652,0 -1.0236682507573687,52.06662846571173,0 -1.0237792392314726,52.06672861011089,0 -1.0239774726758621,52.06694052522446,0 -1.024106870732753,52.06714477818048,0 -1.0241984689134793,52.067379828679684,0 -1.024216003875171,52.06747741909662,0 -1.0242056062136047,52.067547596011885,0 -1.0241183750489666,52.06765240394738,0 -1.0238863899461095,52.06784458616002,0 -1.0222591648105517,52.069155378055584,0 -1.0206247907664727,52.070463055910224,0 -1.019899112705414,52.07105257385908,0 -1.019736639263686,52.07115611520361,0 -1.0196205069293771,52.07120056263607,0 -1.0194902093801912,52.0712357905191,0 -1.0191900762160782,52.07126666262421,0 -1.0189557679128614,52.07127500588495,0 -1.018604012564249,52.07125649244555,0 -1.0175939523905677,52.07116345492805,0 -1.0172621322534758,52.07113824567301,0 -1.016906205557882,52.07112890648858,0 -1.016500345109328,52.071163160695235,0 -1.0162289948381322,52.071215320407404,0 -1.0159954301176892,52.07127874693995,0 -1.0157833121228095,52.07135151559526,0 -1.0136931577313584,52.07236562274399,0 -1.013571574346849,52.0724234500651,0 -1.013433862684812,52.072461546842405,0 -1.013307318327506,52.07246690090721,0 -1.0132124982838064,52.0724420271985,0 -1.013140930368872,52.07238476697172,0 -1.0131072411598265,52.07232282901934,0 -1.0127260086028231,52.071553018102335,0 -1.0126615617937949,52.07147260019332,0 -1.012503184657755,52.07137413575935,0 -1.0123375000412032,52.07133093176042,0 -1.0121649057506343,52.07133401379374,0 -1.012037234274925,52.07136479533314,0 -1.011935267155493,52.07141846231504,0 -1.011813127392497,52.0715436385149,0 -1.0117307505683164,52.071648528165944,0 -1.011645217261999,52.07176983003101,0 -1.0114626258693937,52.07210803815099,0 -1.01138288948012,52.07231775174133,0 -1.0113324780368385,52.07252346842355,0 -1.011303314415872,52.07274301442991,0 -1.011317044246032,52.072981244681785,0 -1.011379054898276,52.0730974175072,0 -1.01156305310624,52.07323985035166,0 -1.0149519954639576,52.075135057827836,0 -1.0166547533677652,52.07607677157175,0 -1.0183409378216752,52.07703026530402,0 -1.018549043945447,52.077125020182315,0 -1.01880812848035,52.07719823657658,0 -1.0191513943300934,52.077235448790134,0 -1.0195121404488416,52.07720709386314,0 -1.0196985944187005,52.07716532703989,0 -1.0198908972452554,52.077101205925196,0 -1.0200157034129842,52.07702547065627,0 -1.0200793662174172,52.076959184079605,0 -1.0201322854934405,52.07686128280429,0 -1.020264990345355,52.07616897834771,0 -1.020330310676852,52.07606529842606,0 -1.0204731015524202,52.07596741315454,0 -1.0206805641100902,52.075890075582286,0 -1.020836963822049,52.07586875873896,0 -1.0209923027166865,52.07587137363643,0 -1.0211638361899342,52.07589222334391,0 -1.0213500393168935,52.07596570973878,0 -1.0214653240985594,52.07604997712864,0 -1.0215504883212425,52.07615619023221,0 -1.0215731188587702,52.07626494104263,0 -1.0215543105672398,52.0763987442544,0 -1.0213841721697605,52.07662040771133,0 -1.0206992283469642,52.07749650968692,0 -1.020610233022923,52.07758631942664,0 -1.0205167148638372,52.077668568781824,0 -1.020280140624853,52.07785468634372,0 -1.019990036038672,52.07804289650221,0 -1.0197763931188932,52.07815006703491,0 -1.019594376260105,52.07823120967459,0 -1.0192885303728978,52.078362560416124,0 -1.018907177755893,52.078470729469956,0 -1.0185636624934056,52.07853032020008,0 -1.0178400068598548,52.078599456535535,0 -1.015323855668532,52.07875767878522,0</coordinates>
      </LineString>
    </Placemark>
  </Document>
</kml>
