<?xml version="1.0" encoding="UTF-8"?>
<!--
silverstone left track limit — 172 vertices, closed (first vertex repeated at the end).

Derived by offsetting a circuit centerline and refining it by hand in
scripts/trace_track_limits.html (twinkly-f1, ADR-0003).

Centerline geometry © Tomislav Bacinger, MIT — bacinger/f1-circuits, circuits/gb-1948.geojson
-->
<kml xmlns="http://www.opengis.net/kml/2.2">
  <Document>
    <name>silverstone_left</name>
    <Placemark><name>silverstone_left</name>
      <LineString><tessellate>1</tessellate><altitudeMode>clampToGround</altitudeMode>
        <coordinates>-1.015362373248209,52.07887508146151,0 -1.0126189962705434,52.07900852280734,0 -1.0123125761119827,52.079016836332144,0 -1.0121042372788087,52.07900434816087,0 -1.011904373375807,52.07896505935453,0 -1.0117074670516948,52.07891384553555,0 -1.011435675925731,52.07879850344826,0 -1.0112729085568117,52.07868948716215,0 -1.011132317225364,52.078573359927,0 -1.0109418017750034,52.078323172654905,0 -1.010780372036131,52.07801958840152,0 -1.0105548789332952,52.07751734155339,0 -1.010461649195331,52.07726430139081,0 -1.0103876379159487,52.077016075291816,0 -1.0102515656633777,52.076464327470276,0 -1.01019814889194,52.07611762238774,0 -1.0101389085545773,52.075284523545434,0 -1.0101001202645004,52.07462525665594,0 -1.010033615368878,52.074317282920504,0 -1.0098653422570714,52.07405848896556,0 -1.0097140264446172,52.073875826361956,0 -1.0095287181239798,52.07370705008076,0 -1.0094300516972454,52.073576660089756,0 -1.0093836818669653,52.07341721343599,0 -1.0094038141792727,52.07329181694345,0 -1.0094971190736803,52.07310478450675,0 -1.0098931257599557,52.072445352489616,0 -1.0099451687604752,52.072257625470776,0 -1.00996289987238,52.07207680511211,0 -1.0098916212988132,52.071876524210246,0 -1.0097244896668405,52.071701573063635,0 -1.0093545221915465,52.07138998784038,0 -1.0092680982482949,52.07131219367899,0 -1.0092049111598353,52.07120335682777,0 -1.0091745197054018,52.07110912000034,0 -1.0091535803567588,52.0709914369177,0 -1.0091683942210308,52.07087642884622,0 -1.0092043896065357,52.07077674583269,0 -1.0092744316763251,52.07067613909418,0 -1.009391186690203,52.07056284704917,0 -1.009561140545865,52.07045494107655,0 -1.009923065722669,52.070290392658244,0 -1.010416721102649,52.07011309322168,0 -1.0106512803393304,52.07002723068213,0 -1.010889526466809,52.06991299005816,0 -1.011059612924636,52.06980209261795,0 -1.0111860103183463,52.06969045973782,0 -1.0113640009664286,52.069510840258374,0 -1.0120103636615003,52.0687927549145,0 -1.0136236169793593,52.066920409119696,0 -1.0144710342438839,52.065940765799574,0 -1.015023348371209,52.06531689568128,0 -1.0152631050621563,52.065058982897,0 -1.0157967455009904,52.064527603127644,0 -1.0163614087441373,52.06400872037973,0 -1.016676341411092,52.063753569920216,0 -1.0168881538703851,52.06363289692554,0 -1.017097910996119,52.063558591678664,0 -1.017321634433482,52.063497993182615,0 -1.017561088341877,52.063466099633175,0 -1.0178675179374228,52.06346466100406,0 -1.0181920087562975,52.06350996329371,0 -1.0184730710645429,52.06358563391516,0 -1.0186669381426183,52.06367032434212,0 -1.0188229544095118,52.06376725218452,0 -1.0189726577121316,52.06389700445496,0 -1.0191382644192055,52.06410635747896,0 -1.0193474679194874,52.06437332468504,0 -1.0196678311728862,52.06470802449363,0 -1.0199996932364288,52.06500250292073,0 -1.0202323584645767,52.06517855722721,0 -1.0204793878108493,52.06535934388173,0 -1.0209586442475178,52.06567127197097,0 -1.0215662235623257,52.0661021144741,0 -1.0220393659379683,52.06644237978999,0 -1.0220911724570185,52.06647917627219,0 -1.0221464006625358,52.066493577605165,0 -1.0222188842639843,52.06650228200735,0 -1.0223502426304911,52.06644312238353,0 -1.022549852937558,52.066323740833795,0 -1.0227685491010419,52.06621216481524,0 -1.0229523106963418,52.066176340069426,0 -1.0231393114094465,52.06617138449887,0 -1.0233005784529607,52.06621232151761,0 -1.0235166623015761,52.066322053421835,0 -1.0237174024800815,52.06645116797171,0 -1.023975440559094,52.06665758638969,0 -1.0241815798481477,52.066884087067635,0 -1.0243173312005687,52.06710940287016,0 -1.0244129218076792,52.06736397962431,0 -1.0244315579179486,52.06749152557501,0 -1.0244231896201155,52.06757071775085,0 -1.0243708007527526,52.067656653155765,0 -1.0242925086258647,52.06772419031959,0 -1.0240279094927134,52.06793977312198,0 -1.022415844088271,52.06923734855998,0 -1.020795900463399,52.07054826302886,0 -1.0199397662811636,52.071231383336695,0 -1.0198129307497013,52.07129810334506,0 -1.0195890084090906,52.0713631890425,0 -1.0192302253529932,52.07140205496387,0 -1.0189431562551796,52.071412191084654,0 -1.018559994864456,52.07139825688753,0 -1.0175683027269773,52.07130372704303,0 -1.0172417618645047,52.07127278376909,0 -1.016921441695397,52.07126589480926,0 -1.016546066254194,52.071295500323416,0 -1.0162077354074213,52.07136614437453,0 -1.0159219403916067,52.07145713183604,0 -1.013845752311785,52.0724849457356,0 -1.0136277854602092,52.07258006868236,0 -1.0134782031513587,52.07261197823561,0 -1.0132668404382132,52.072612910810754,0 -1.0130816058576664,52.072572371417245,0 -1.0129474341228313,52.07247581129481,0 -1.0128743592521052,52.07238089051414,0 -1.0124975634271678,52.07161054341524,0 -1.0124304408364795,52.07152746807028,0 -1.012324609298671,52.071479951869634,0 -1.0122073461067498,52.071476543055915,0 -1.012113592062023,52.07150528774079,0 -1.012047966194939,52.07156106332308,0 -1.0120066120301423,52.0716172474831,0 -1.0119321797274734,52.07170730236946,0 -1.0117831565501445,52.071945786618144,0 -1.0116763234818595,52.07216402517578,0 -1.011596255587173,52.072381217435115,0 -1.0115537886654031,52.07257209935265,0 -1.0115262825715008,52.07275425201402,0 -1.0115176490693374,52.072839427125054,0 -1.0115629580822967,52.07302280551962,0 -1.011722436366914,52.07315122548735,0 -1.012465274203704,52.073599313363765,0 -1.013375295612119,52.074111586370066,0 -1.0150654906259107,52.07505161984618,0 -1.0167556193386198,52.07599314905609,0 -1.0184802588431914,52.07692328440442,0 -1.0186364721478702,52.0769962380175,0 -1.0188723288544077,52.07707023227837,0 -1.0191555531859313,52.0770955686403,0 -1.019451080111277,52.07707471858115,0 -1.0195970367141596,52.07704536632771,0 -1.019752136374293,52.07699858115202,0 -1.0198622469184844,52.07692559220404,0 -1.01992856176622,52.0767994762754,0 -1.0199852718123448,52.076451664882214,0 -1.0200489043826935,52.07611302164235,0 -1.020164519427961,52.07596970288637,0 -1.0202526528379288,52.07589933768604,0 -1.0203571797297546,52.07584272009432,0 -1.020483352250391,52.075790957423955,0 -1.0206284780252795,52.07574999175237,0 -1.02091870360523,52.07572344341756,0 -1.0212520618708107,52.07576497940141,0 -1.0214978839958115,52.07586360562896,0 -1.0216436603736283,52.07598022673121,0 -1.021758066828955,52.07611842066735,0 -1.0217932197055442,52.07626954629243,0 -1.0217517473000126,52.07643799220297,0 -1.021568544836234,52.07668039164423,0 -1.021146355324673,52.077218138072546,0 -1.0208898476766288,52.077525164925575,0 -1.0207819394295925,52.07765806494108,0 -1.0206855299927,52.07775074357509,0 -1.0204042721733606,52.077958561704065,0 -1.0201338501533395,52.07814111578954,0 -1.0197264457831896,52.07834531358053,0 -1.0193800781439963,52.07848767113848,0 -1.019047769087341,52.07858685670511,0 -1.0187512305431166,52.078646229467964,0 -1.0183093269894998,52.07869716782925,0 -1.0178610701403528,52.07872704334401,0 -1.015362373248209,52.07887508146151,0</coordinates>
      </LineString>
    </Placemark>
  </Document>
</kml>
